{"type": "FeatureCollection", "features": [ {"type": "Feature", "properties": {"norad_id": 30516, "name": "FENGYUN 1C DEB", "group": "fengyun-1c-debris", "lat": 78.6272481542231, "lon": 43.987592151539516, "alt_km": 752.9749359168109, "timestamp": "2025-12-16T15:45:51.322783+00:00", "meta": {"OBJECT_NAME": "FENGYUN 1C DEB", "OBJECT_ID": "1999-025AJE", "EPOCH": "2025-12-15T06:11:47.817312", "MEAN_MOTION": 14.41379445, "ECCENTRICITY": 0.00093896, "INCLINATION": 98.8569, "RA_OF_ASC_NODE": 93.3628, "ARG_OF_PERICENTER": 283.1291, "MEAN_ANOMALY": 106.2615, "EPHEMERIS_TYPE": 0, "CLASSIFICATION_TYPE": "U", "NORAD_CAT_ID": 30516, "ELEMENT_SET_NO": 999, "REV_AT_EPOCH": 97751, "BSTAR": 0.0015142551, "MEAN_MOTION_DOT": 4.863e-05, "MEAN_MOTION_DDOT": 0}, "tle": {"line1": "1 30516U 99025AJE 25349.25819233  .00004863  00000+0  15143-2 0  9992", "line2": "2 30516  98.8569  93.3628 0009389 283.1291 106.2615 14.41379445977510"}}, "geometry": {"type": "Point", "coordinates": [43.987592151539516, 78.6272481542231]}}, {"type": "Feature", "properties": {"norad_id": 30520, "name": "FENGYUN 1C DEB", "group": "fengyun-1c-debris", "lat": 27.53587927570116, "lon": -11.384600749196629, "alt_km": 501.6324527989764, "timestamp": "2025-12-16T15:45:51.322795+00:00", "meta": {"OBJECT_NAME": "FENGYUN 1C DEB", "OBJECT_ID": "1999-025AJJ", "EPOCH": "2025-12-15T10:33:16.288704", "MEAN_MOTION": 15.14187233, "ECCENTRICITY": 0.00701875, "INCLINATION": 98.7173, "RA_OF_ASC_NODE": 162.6346, "ARG_OF_PERICENTER": 90.9034, "MEAN_ANOMALY": 270.0237, "EPHEMERIS_TYPE": 0, "CLASSIFICATION_TYPE": "U", "NORAD_CAT_ID": 30520, "ELEMENT_SET_NO": 999, "REV_AT_EPOCH": 1082, "BSTAR": 0.00074403884, "MEAN_MOTION_DOT": 0.00014369, "MEAN_MOTION_DDOT": 0}, "tle": {"line1": "1 30520U 99025AJJ 25349.43977186  .00014369  00000+0  74404-3 0  9997", "line2": "2 30520  98.7173 162.6346 0070187  90.9034 270.0237 15.14187233 10820"}}, "geometry": {"type": "Point", "coordinates": [-11.384600749196629, 27.53587927570116]}}, {"type": "Feature", "properties": {"norad_id": 30521, "name": "FENGYUN 1C DEB", "group": "fengyun-1c-debris", "lat": -67.89925852483454, "lon": -76.72993963996365, "alt_km": 614.4686669016355, "timestamp": "2025-12-16T15:45:51.322809+00:00", "meta": {"OBJECT_NAME": "FENGYUN 1C DEB", "OBJECT_ID": "1999-025AJK", "EPOCH": "2025-12-15T20:30:18.249696", "MEAN_MOTION": 14.58278077, "ECCENTRICITY": 0.01356615, "INCLINATION": 98.9874, "RA_OF_ASC_NODE": 125.3414, "ARG_OF_PERICENTER": 234.1929, "MEAN_ANOMALY": 124.6598, "EPHEMERIS_TYPE": 0, "CLASSIFICATION_TYPE": "U", "NORAD_CAT_ID": 30521, "ELEMENT_SET_NO": 999, "REV_AT_EPOCH": 99627, "BSTAR": 0.00061624357, "MEAN_MOTION_DOT": 3.173e-05, "MEAN_MOTION_DDOT": 0}, "tle": {"line1": "1 30521U 99025AJK 25349.85437789  .00003173  00000+0  61624-3 0  9995", "line2": "2 30521  98.9874 125.3414 0135661 234.1929 124.6598 14.58278077996277"}}, "geometry": {"type": "Point", "coordinates": [-76.72993963996365, -67.89925852483454]}}, {"type": "Feature", "properties": {"norad_id": 30523, "name": "FENGYUN 1C DEB", "group": "fengyun-1c-debris", "lat": 81.46291501579861, "lon": -128.27849391111874, "alt_km": 616.8156967901914, "timestamp": "2025-12-16T15:45:51.322820+00:00", "meta": {"OBJECT_NAME": "FENGYUN 1C DEB", "OBJECT_ID": "1999-025AJM", "EPOCH": "2025-12-15T11:19:23.563200", "MEAN_MOTION": 14.27933404, "ECCENTRICITY": 0.02441792, "INCLINATION": 98.4662, "RA_OF_ASC_NODE": 327.7272, "ARG_OF_PERICENTER": 100.5403, "MEAN_ANOMALY": 22.5003, "EPHEMERIS_TYPE": 0, "CLASSIFICATION_TYPE": "U", "NORAD_CAT_ID": 30523, "ELEMENT_SET_NO": 999, "REV_AT_EPOCH": 98139, "BSTAR": 0.00018509147, "MEAN_MOTION_DOT": 5.84e-06, "MEAN_MOTION_DDOT": 0}, "tle": {"line1": "1 30523U 99025AJM 25349.47180050  .00000584  00000+0  18509-3 0  9998", "line2": "2 30523  98.4662 327.7272 0244179 100.5403  22.5003 14.27933404981399"}}, "geometry": {"type": "Point", "coordinates": [-128.27849391111874, 81.46291501579861]}}, {"type": "Feature", "properties": {"norad_id": 30524, "name": "FENGYUN 1C DEB", "group": "fengyun-1c-debris", "lat": -80.66416584541017, "lon": -111.25201882030156, "alt_km": 797.0157021432315, "timestamp": "2025-12-16T15:45:51.322830+00:00", "meta": {"OBJECT_NAME": "FENGYUN 1C DEB", "OBJECT_ID": "1999-025AJN", "EPOCH": "2025-12-15T10:52:02.974080", "MEAN_MOTION": 13.92242398, "ECCENTRICITY": 0.02079093, "INCLINATION": 99.3074, "RA_OF_ASC_NODE": 161.5752, "ARG_OF_PERICENTER": 243.0028, "MEAN_ANOMALY": 114.9768, "EPHEMERIS_TYPE": 0, "CLASSIFICATION_TYPE": "U", "NORAD_CAT_ID": 30524, "ELEMENT_SET_NO": 999, "REV_AT_EPOCH": 93923, "BSTAR": 0.0035702558, "MEAN_MOTION_DOT": 5.42e-05, "MEAN_MOTION_DDOT": 0}, "tle": {"line1": "1 30524U 99025AJN 25349.45281220  .00005420  00000+0  35703-2 0  9996", "line2": "2 30524  99.3074 161.5752 0207909 243.0028 114.9768 13.92242398939236"}}, "geometry": {"type": "Point", "coordinates": [-111.25201882030156, -80.66416584541017]}}, {"type": "Feature", "properties": {"norad_id": 30525, "name": "FENGYUN 1C DEB", "group": "fengyun-1c-debris", "lat": 37.47373335986646, "lon": -131.38574413248145, "alt_km": 1064.9103376371195, "timestamp": "2025-12-16T15:45:51.322840+00:00", "meta": {"OBJECT_NAME": "FENGYUN 1C DEB", "OBJECT_ID": "1999-025AJP", "EPOCH": "2025-12-11T15:23:44.239200", "MEAN_MOTION": 13.58601953, "ECCENTRICITY": 0.02937099, "INCLINATION": 98.6024, "RA_OF_ASC_NODE": 230.8726, "ARG_OF_PERICENTER": 312.3562, "MEAN_ANOMALY": 45.3044, "EPHEMERIS_TYPE": 0, "CLASSIFICATION_TYPE": "U", "NORAD_CAT_ID": 30525, "ELEMENT_SET_NO": 999, "REV_AT_EPOCH": 93102, "BSTAR": 0.0022686039, "MEAN_MOTION_DOT": 2.156e-05, "MEAN_MOTION_DDOT": 0}, "tle": {"line1": "1 30525U 99025AJP 25345.64148425  .00002156  00000+0  22686-2 0  9992", "line2": "2 30525  98.6024 230.8726 0293709 312.3562  45.3044 13.58601953931022"}}, "geometry": {"type": "Point", "coordinates": [-131.38574413248145, 37.47373335986646]}}, {"type": "Feature", "properties": {"norad_id": 30526, "name": "FENGYUN 1C DEB", "group": "fengyun-1c-debris", "lat": -76.77523200898888, "lon": -152.97170175104333, "alt_km": 852.8672858310183, "timestamp": "2025-12-16T15:45:51.322850+00:00", "meta": {"OBJECT_NAME": "FENGYUN 1C DEB", "OBJECT_ID": "1999-025AJQ", "EPOCH": "2025-12-13T11:45:03.225888", "MEAN_MOTION": 13.49909443, "ECCENTRICITY": 0.03061001, "INCLINATION": 99.5472, "RA_OF_ASC_NODE": 69.7235, "ARG_OF_PERICENTER": 262.8509, "MEAN_ANOMALY": 93.7734, "EPHEMERIS_TYPE": 0, "CLASSIFICATION_TYPE": "U", "NORAD_CAT_ID": 30526, "ELEMENT_SET_NO": 999, "REV_AT_EPOCH": 92668, "BSTAR": 0.0018721459, "MEAN_MOTION_DOT": 1.546e-05, "MEAN_MOTION_DDOT": 0}, "tle": {"line1": "1 30526U 99025AJQ 25347.48962067  .00001546  00000+0  18721-2 0  9990", "line2": "2 30526  99.5472  69.7235 0306100 262.8509  93.7734 13.49909443926688"}}, "geometry": {"type": "Point", "coordinates": [-152.97170175104333, -76.77523200898888]}}, {"type": "Feature", "properties": {"norad_id": 30527, "name": "FENGYUN 1C DEB", "group": "fengyun-1c-debris", "lat": -79.68246068415947, "lon": 136.68324419533295, "alt_km": 944.9205061697166, "timestamp": "2025-12-16T15:45:51.322860+00:00", "meta": {"OBJECT_NAME": "FENGYUN 1C DEB", "OBJECT_ID": "1999-025AJR", "EPOCH": "2025-12-15T21:19:23.178144", "MEAN_MOTION": 13.31040252, "ECCENTRICITY": 0.04135108, "INCLINATION": 100.0634, "RA_OF_ASC_NODE": 33.2003, "ARG_OF_PERICENTER": 219.0316, "MEAN_ANOMALY": 325.0532, "EPHEMERIS_TYPE": 0, "CLASSIFICATION_TYPE": "U", "NORAD_CAT_ID": 30527, "ELEMENT_SET_NO": 999, "REV_AT_EPOCH": 91398, "BSTAR": 0.0015682823, "MEAN_MOTION_DOT": 1.151e-05, "MEAN_MOTION_DDOT": 0}, "tle": {"line1": "1 30527U 99025AJR 25349.88846271  .00001151  00000+0  15683-2 0  9991", "line2": "2 30527 100.0634  33.2003 0413510 219.0316 325.0532 13.31040252913981"}}, "geometry": {"type": "Point", "coordinates": [136.68324419533295, -79.68246068415947]}}, {"type": "Feature", "properties": {"norad_id": 30528, "name": "FENGYUN 1C DEB", "group": "fengyun-1c-debris", "lat": -19.329048170802203, "lon": -137.13810418336192, "alt_km": 912.5043104837569, "timestamp": "2025-12-16T15:45:51.322870+00:00", "meta": {"OBJECT_NAME": "FENGYUN 1C DEB", "OBJECT_ID": "1999-025AJS", "EPOCH": "2025-12-15T21:13:27.839136", "MEAN_MOTION": 14.13498282, "ECCENTRICITY": 0.01435292, "INCLINATION": 98.2378, "RA_OF_ASC_NODE": 219.2373, "ARG_OF_PERICENTER": 216.7843, "MEAN_ANOMALY": 153.7743, "EPHEMERIS_TYPE": 0, "CLASSIFICATION_TYPE": "U", "NORAD_CAT_ID": 30528, "ELEMENT_SET_NO": 999, "REV_AT_EPOCH": 97182, "BSTAR": 0.00031876992, "MEAN_MOTION_DOT": 6.22e-06, "MEAN_MOTION_DDOT": 0}, "tle": {"line1": "1 30528U 99025AJS 25349.88434999  .00000622  00000+0  31877-3 0  9998", "line2": "2 30528  98.2378 219.2373 0143529 216.7843 153.7743 14.13498282971828"}}, "geometry": {"type": "Point", "coordinates": [-137.13810418336192, -19.329048170802203]}}, {"type": "Feature", "properties": {"norad_id": 30529, "name": "FENGYUN 1C DEB", "group": "fengyun-1c-debris", "lat": -24.17623074599698, "lon": -84.07343797336962, "alt_km": 1091.055791455682, "timestamp": "2025-12-16T15:45:51.322880+00:00", "meta": {"OBJECT_NAME": "FENGYUN 1C DEB", "OBJECT_ID": "1999-025AJT", "EPOCH": "2025-12-13T17:51:26.012448", "MEAN_MOTION": 13.71609854, "ECCENTRICITY": 0.02304788, "INCLINATION": 98.487, "RA_OF_ASC_NODE": 269.5039, "ARG_OF_PERICENTER": 219.6089, "MEAN_ANOMALY": 138.8027, "EPHEMERIS_TYPE": 0, "CLASSIFICATION_TYPE": "U", "NORAD_CAT_ID": 30529, "ELEMENT_SET_NO": 999, "REV_AT_EPOCH": 94022, "BSTAR": 0.00122315, "MEAN_MOTION_DOT": 1.295e-05, "MEAN_MOTION_DDOT": 0}, "tle": {"line1": "1 30529U 99025AJT 25347.74405107  .00001295  00000+0  12232-2 0  9991", "line2": "2 30529  98.4870 269.5039 0230478 219.6089 138.8027 13.71609854940220"}}, "geometry": {"type": "Point", "coordinates": [-84.07343797336962, -24.17623074599698]}}]}